[{"OBJECT_NAME":"TRANSPORTER-12 OBJECT BT","OBJECT_ID":"2025-009BT","EPOCH":"2026-03-09T17:08:24.281088","MEAN_MOTION":15.27872239,"ECCENTRICITY":0.00036816,"INCLINATION":97.4094,"RA_OF_ASC_NODE":151.5992,"ARG_OF_PERICENTER":313.5044,"MEAN_ANOMALY":46.5889,"EPHEMERIS_TYPE":0,"CLASSIFICATION_TYPE":"U","NORAD_CAT_ID":62674,"ELEMENT_SET_NO":999,"REV_AT_EPOCH":12136,"BSTAR":0.000510288,"MEAN_MOTION_DOT":0.00013824,"MEAN_MOTION_DDOT":0},{"OBJECT_NAME":"STARLINK-36506","OBJECT_ID":"2026-005L","EPOCH":"2026-03-09T11:03:20.861568","MEAN_MOTION":15.27599478,"ECCENTRICITY":0.00010431,"INCLINATION":42.9969,"RA_OF_ASC_NODE":239.0803,"ARG_OF_PERICENTER":258.6367,"MEAN_ANOMALY":101.4367,"EPHEMERIS_TYPE":0,"CLASSIFICATION_TYPE":"U","NORAD_CAT_ID":67414,"ELEMENT_SET_NO":999,"REV_AT_EPOCH":866,"BSTAR":0.0010330166,"MEAN_MOTION_DOT":0.0002829,"MEAN_MOTION_DDOT":0}]
